[{"OBJECT_NAME":"NETSAT-1","OBJECT_ID":"2020-068W","EPOCH":"2026-03-09T22:42:38.711232","MEAN_MOTION":15.32042482,"ECCENTRICITY":0.00057337,"INCLINATION":97.8751,"RA_OF_ASC_NODE":63.2583,"ARG_OF_PERICENTER":18.5877,"MEAN_ANOMALY":341.5572,"EPHEMERIS_TYPE":0,"CLASSIFICATION_TYPE":"U","NORAD_CAT_ID":46506,"ELEMENT_SET_NO":999,"REV_AT_EPOCH":30009,"BSTAR":0.00059222329,"MEAN_MOTION_DOT":0.00018269,"MEAN_MOTION_DDOT":0},{"OBJECT_NAME":"STARLINK-30811","OBJECT_ID":"2023-166T","EPOCH":"2026-03-09T16:45:54.091008","MEAN_MOTION":15.30188354,"ECCENTRICITY":0.00012319,"INCLINATION":53.1601,"RA_OF_ASC_NODE":219.367,"ARG_OF_PERICENTER":84.4517,"MEAN_ANOMALY":275.6624,"EPHEMERIS_TYPE":0,"CLASSIFICATION_TYPE":"U","NORAD_CAT_ID":58167,"ELEMENT_SET_NO":999,"REV_AT_EPOCH":13303,"BSTAR":3.2352715e-5,"MEAN_MOTION_DOT":5.99e-6,"MEAN_MOTION_DDOT":0}]
